{"type":"FeatureCollection","features":[{"type":"Feature","id":0,"properties":{"value":0},"geometry":{"type":"Point","coordinates":[0,0,0]}},{"type":"Feature","id":1,"properties":{"value":1},"geometry":{"type":"Point","coordinates":[10,0,0]}},{"type":"Feature","id":2,"properties":{"value":2},"geometry":{"type":"Point","coordinates":[20,0,0]}},{"type":"Feature","id":3,"properties":{"value":3},"geometry":{"type":"Point","coordinates":[30,0,0]}},{"type":"Feature","id":4,"properties":{"value":4},"geometry":{"type":"Point","coordinates":[40,0,0]}},{"type":"Feature","id":5,"properties":{"value":5},"geometry":{"type":"Point","coordinates":[0,10,0]}},{"type":"Feature","id":6,"properties":{"value":6},"geometry":{"type":"Point","coordinates":[10,10,0]}},{"type":"Feature","id":7,"properties":{"value":7},"geometry":{"type":"Point","coordinates":[20,10,0]}},{"type":"Feature","id":8,"properties":{"value":8},"geometry":{"type":"Point","coordinates":[30,10,0]}},{"type":"Feature","id":9,"properties":{"value":9},"geometry":{"type":"Point","coordinates":[40,10,0]}},{"type":"Feature","id":10,"properties":{"value":10},"geometry":{"type":"Point","coordinates":[0,20,0]}},{"type":"Feature","id":11,"properties":{"value":11},"geometry":{"type":"Point","coordinates":[10,20,0]}},{"type":"Feature","id":12,"properties":{"value":12},"geometry":{"type":"Point","coordinates":[20,20,0]}},{"type":"Feature","id":13,"properties":{"value":13},"geometry":{"type":"Point","coordinates":[30,20,0]}},{"type":"Feature","id":14,"properties":{"value":14},"geometry":{"type":"Point","coordinates":[40,20,0]}},{"type":"Feature","id":15,"properties":{"value":15},"geometry":{"type":"Point","coordinates":[0,30,0]}},{"type":"Feature","id":16,"properties":{"value":16},"geometry":{"type":"Point","coordinates":[10,30,0]}},{"type":"Feature","id":17,"properties":{"value":17},"geometry":{"type":"Point","coordinates":[20,30,0]}},{"type":"Feature","id":18,"properties":{"value":18},"geometry":{"type":"Point","coordinates":[30,30,0]}},{"type":"Feature","id":19,"properties":{"value":19},"geometry":{"type":"Point","coordinates":[40,30,0]}}]}
