{"type":"FeatureCollection","features":[{"type":"Feature","properties":{"id":0},"geometry":{"type":"Point","coordinates":[-100,-100,0]}},{"type":"Feature","properties":{"id":1},"geometry":{"type":"Point","coordinates":[-99.99,-99.98,0]}},{"type":"Feature","properties":{"id":2},"geometry":{"type":"Point","coordinates":[-99.98,-99.96,0]}},{"type":"Feature","properties":{"id":3},"geometry":{"type":"Point","coordinates":[-99.97,-99.94,0]}},{"type":"Feature","properties":{"id":4},"geometry":{"type":"Point","coordinates":[100,100,0]}},{"type":"Feature","properties":{"id":5},"geometry":{"type":"Point","coordinates":[100.01,100.02,0]}},{"type":"Feature","properties":{"id":6},"geometry":{"type":"Point","coordinates":[100.02,100.04,0]}},{"type":"Feature","properties":{"id":7},"geometry":{"type":"Point","coordinates":[100.03,100.06,0]}}]}
